[
    {
      "id": "bsa",
      "lat": 35.16653706662999,
      "lng": 129.13715294519125,
      "place_name": "부산시립미술관",
      "url": "https://art.busan.go.kr/index.nm",
      "adress": "부산광역시 해운대구 APEC로 58",
      "exhibition": 5,
      "label": "미술관"
    },
    {
      "id": "bma",
      "lat": 35.10925749127217,
      "lng": 128.94271033380025,
      "place_name": "부산 현대 미술관",
      "url": "https://www.busan.go.kr/moca/index",
      "adress": "부산광역시 사하구 낙동남로 1191",
      "exhibition": 2,
      "label": "미술관"
    },
    {
      "id": "bh",
      "lat": 35.17235935598403,
      "lng": 129.11593737498083,
      "place_name": "공간 힘",
      "url": "https://www.instagram.com/spaceheem/?hl=ko",
      "adress": "부산 수영구 수미로50번가길 3 (지하, 4층)",
      "exhibition": 1,
      "label": "전시장"
    },
    {
      "id": "opb",
      "lat": 35.104704652103216,
      "lng": 129.03453619485288,
      "place_name": "오픈스페이스 배",
      "url": "http://www.spacebae.com/w3c/board.php?board=bae&command=skin_insert&exe=insert_iboard_home",
      "adress": "부산광역시 중구 동광길 43 1,3,4층",
      "exhibition": 1,
      "label": "전시장"
    },
    {
      "id": "coca",
      "lat": 35.17569459545295,
      "lng": 129.10929596674174,
      "place_name": "현대미술회관",
      "url": "http://cocabusan.kr/",
      "adress": "부산 수영구 망미번영로85번가길 9",
      "exhibition": 0,
      "label": "전시장"
    },
    {
      "id": "obh",
      "lat": 35.17603631646696,
      "lng": 129.1178545971057,
      "place_name": "오브제후드",
      "url": "https://www.objecthood.co.kr/",
      "adress": "부산 수영구 좌수영로 135 크리에이티브센터 1층",
      "exhibition": 0,
      "label": "갤러리"
    },
    {
      "id": "kukje",
      "lat": 35.176998655071756,
      "lng": 129.11486954325972,
      "place_name": "국제갤러리(부산)",
      "url": "https://www.kukjegallery.com/",
      "adress": "부산광역시 수영구 구락로 123번길 20 F1963, 국제갤러리",
      "exhibition": 0,
      "label": "갤러리"
    },
    {
      "id": "hmb",
      "lat": 35.17669671527782,
      "lng": 129.11513061792138,
      "place_name": "현대 모터스튜디오 부산",
      "url": "https://motorstudio.hyundai.com/busan/ln/main.do",
      "adress":
        "부산광역시 수영구 구락로 123번길 20 현대자동차(주) 현대 모터스튜디오 부산",
      "exhibition": 0,
      "label": "전시장"
    },
    {
      "id": "jhg",
      "lat": 35.15678741371054,
      "lng": 129.17933181225428,
      "place_name": "조현화랑",
      "url": "http://www.johyungallery.com/",
      "adress": "부산 해운대구 달맞이길65번길 171",
      "exhibition": 0,
      "label": "갤러리"
    },
    {
      "id": "jhg",
      "lat": 35.16093940299849,
      "lng": 129.1642584694559,
      "place_name": "조현갤러리",
      "url": "http://www.johyungallery.com/",
      "adress": "부산 해운대구 해운대해변로298번길 5",
      "exhibition": 0,
      "label": "갤러리"
    },
    {
      "id": "hta",
      "lat": 35.061272760285135,
      "lng": 128.9610873601511,
      "place_name": "홍티예술촌",
      "url": "https://hongtiartvillage.modoo.at/",
      "adress": "부산 사하구 홍티로 76 홍티예술촌",
      "exhibition": 0,
      "label": "레지던시"
    },
    {
      "id": "htac",
      "lat": 35.06216293008355,
      "lng": 128.95870284323988,
      "place_name": "홍티아트센터",
      "url": "https://hongtiartvillage.modoo.at/",
      "adress": "부산 사하구 다산로106번길 6 홍티아트센터",
      "exhibition": 0,
      "label": "레지던시"
    },
    {
      "id": "mac",
      "lat": 35.16347411163731,
      "lng": 129.18531797600286,
      "place_name": "맥화랑",
      "url": "https://www.instagram.com/gallerymac",
      "adress": "부산 해운대구 달맞이길117번나길 162 2층 (카페아랫층)",
      "exhibition": 0,
      "label": "갤러리"
    },
    {
      "id": "htac",
      "lat": 35.06216293008355,
      "lng": 128.95870284323988,
      "place_name": "홍티아트센터",
      "url": "https://hongtiartvillage.modoo.at/",
      "adress": "부산 사하구 다산로106번길 6 홍티아트센터",
      "exhibition": 0,
      "label": "레지던시"
    }
]
